{"type": "FeatureCollection", "features": [ {"type": "Feature", "properties": {"norad_id": 41836, "name": "HIMAWARI-9", "group": "weather", "lat": 0.009916879801217457, "lon": 70.07023384850446, "alt_km": 35790.83793695442, "timestamp": "2025-12-11T13:55:01.810588+00:00", "meta": {"OBJECT_NAME": "HIMAWARI-9", "OBJECT_ID": "2016-064A", "EPOCH": "2025-12-11T05:37:15.120192", "MEAN_MOTION": 1.0027103, "ECCENTRICITY": 0.00011375, "INCLINATION": 0.0321, "RA_OF_ASC_NODE": 90.0748, "ARG_OF_PERICENTER": 180.5898, "MEAN_ANOMALY": 34.621, "EPHEMERIS_TYPE": 0, "CLASSIFICATION_TYPE": "U", "NORAD_CAT_ID": 41836, "ELEMENT_SET_NO": 999, "REV_AT_EPOCH": 3332, "BSTAR": 0, "MEAN_MOTION_DOT": -2.69e-06, "MEAN_MOTION_DDOT": 0}, "tle": {"line1": "1 41836U 16064A   25345.23420278 -.00000269  00000+0  00000+0 0  9992", "line2": "2 41836   0.0321  90.0748 0001137 180.5898  34.6210  1.00271030 33320"}}, "geometry": {"type": "Point", "coordinates": [70.07023384850446, 0.009916879801217457]}}, {"type": "Feature", "properties": {"norad_id": 41866, "name": "GOES 16", "group": "weather", "lat": 0.05540416868138068, "lon": -175.41899973469538, "alt_km": 35783.132882613, "timestamp": "2025-12-11T13:55:01.810601+00:00", "meta": {"OBJECT_NAME": "GOES 16", "OBJECT_ID": "2016-071A", "EPOCH": "2025-12-11T05:00:38.584224", "MEAN_MOTION": 1.00271355, "ECCENTRICITY": 0.00033103, "INCLINATION": 0.0662, "RA_OF_ASC_NODE": 103.7477, "ARG_OF_PERICENTER": 158.2336, "MEAN_ANOMALY": 148.679, "EPHEMERIS_TYPE": 0, "CLASSIFICATION_TYPE": "U", "NORAD_CAT_ID": 41866, "ELEMENT_SET_NO": 999, "REV_AT_EPOCH": 3321, "BSTAR": 0, "MEAN_MOTION_DOT": -8.5e-07, "MEAN_MOTION_DDOT": 0}, "tle": {"line1": "1 41866U 16071A   25345.20877991 -.00000085  00000+0  00000+0 0  9994", "line2": "2 41866   0.0662 103.7477 0003310 158.2336 148.6790  1.00271355 33213"}}, "geometry": {"type": "Point", "coordinates": [-175.41899973469538, 0.05540416868138068]}}, {"type": "Feature", "properties": {"norad_id": 41882, "name": "FENGYUN 4A", "group": "weather", "lat": -0.8848592056491874, "lon": 53.136460675781656, "alt_km": 35807.53554863584, "timestamp": "2025-12-11T13:55:01.810613+00:00", "meta": {"OBJECT_NAME": "FENGYUN 4A", "OBJECT_ID": "2016-077A", "EPOCH": "2025-12-10T22:41:30.995232", "MEAN_MOTION": 1.00270325, "ECCENTRICITY": 0.00049475, "INCLINATION": 1.8448, "RA_OF_ASC_NODE": 82.3997, "ARG_OF_PERICENTER": 145.8044, "MEAN_ANOMALY": 315.9271, "EPHEMERIS_TYPE": 0, "CLASSIFICATION_TYPE": "U", "NORAD_CAT_ID": 41882, "ELEMENT_SET_NO": 999, "REV_AT_EPOCH": 3304, "BSTAR": 0, "MEAN_MOTION_DOT": -3.51e-06, "MEAN_MOTION_DDOT": 0}, "tle": {"line1": "1 41882U 16077A   25344.94549763 -.00000351  00000+0  00000+0 0  9997", "line2": "2 41882   1.8448  82.3997 0004947 145.8044 315.9271  1.00270325 33046"}}, "geometry": {"type": "Point", "coordinates": [53.136460675781656, -0.8848592056491874]}}, {"type": "Feature", "properties": {"norad_id": 41884, "name": "CYGFM05", "group": "weather", "lat": 5.303436698571058, "lon": 62.342028132457294, "alt_km": 428.49721426454744, "timestamp": "2025-12-11T13:55:01.810625+00:00", "meta": {"OBJECT_NAME": "CYGFM05", "OBJECT_ID": "2016-078A", "EPOCH": "2025-12-11T06:08:09.962304", "MEAN_MOTION": 15.47551174, "ECCENTRICITY": 0.00099638, "INCLINATION": 34.9599, "RA_OF_ASC_NODE": 56.8244, "ARG_OF_PERICENTER": 169.9155, "MEAN_ANOMALY": 190.1768, "EPHEMERIS_TYPE": 0, "CLASSIFICATION_TYPE": "U", "NORAD_CAT_ID": 41884, "ELEMENT_SET_NO": 999, "REV_AT_EPOCH": 49953, "BSTAR": 0.00060955396, "MEAN_MOTION_DOT": 0.00032476, "MEAN_MOTION_DDOT": 0}, "tle": {"line1": "1 41884U 16078A   25345.25567086  .00032476  00000+0  60955-3 0  9994", "line2": "2 41884  34.9599  56.8244 0009963 169.9155 190.1768 15.47551174499530"}}, "geometry": {"type": "Point", "coordinates": [62.342028132457294, 5.303436698571058]}}, {"type": "Feature", "properties": {"norad_id": 41885, "name": "CYGFM04", "group": "weather", "lat": -28.842888674901847, "lon": -98.3922219313578, "alt_km": 412.62055998096, "timestamp": "2025-12-11T13:55:01.810638+00:00", "meta": {"OBJECT_NAME": "CYGFM04", "OBJECT_ID": "2016-078B", "EPOCH": "2025-12-11T05:10:15.261024", "MEAN_MOTION": 15.50253056, "ECCENTRICITY": 0.0009303, "INCLINATION": 34.9353, "RA_OF_ASC_NODE": 31.908, "ARG_OF_PERICENTER": 196.8929, "MEAN_ANOMALY": 163.1484, "EPHEMERIS_TYPE": 0, "CLASSIFICATION_TYPE": "U", "NORAD_CAT_ID": 41885, "ELEMENT_SET_NO": 999, "REV_AT_EPOCH": 49970, "BSTAR": 0.00052472837, "MEAN_MOTION_DOT": 0.00030733, "MEAN_MOTION_DDOT": 0}, "tle": {"line1": "1 41885U 16078B   25345.21545441  .00030733  00000+0  52473-3 0  9992", "line2": "2 41885  34.9353  31.9080 0009303 196.8929 163.1484 15.50253056499703"}}, "geometry": {"type": "Point", "coordinates": [-98.3922219313578, -28.842888674901847]}}, {"type": "Feature", "properties": {"norad_id": 41886, "name": "CYGFM02", "group": "weather", "lat": -31.176270347499507, "lon": -92.08502079317009, "alt_km": 408.5014647210428, "timestamp": "2025-12-11T13:55:01.810658+00:00", "meta": {"OBJECT_NAME": "CYGFM02", "OBJECT_ID": "2016-078C", "EPOCH": "2025-12-11T05:08:50.924256", "MEAN_MOTION": 15.51625052, "ECCENTRICITY": 0.00109623, "INCLINATION": 34.9444, "RA_OF_ASC_NODE": 30.2604, "ARG_OF_PERICENTER": 196.6224, "MEAN_ANOMALY": 163.4141, "EPHEMERIS_TYPE": 0, "CLASSIFICATION_TYPE": "U", "NORAD_CAT_ID": 41886, "ELEMENT_SET_NO": 999, "REV_AT_EPOCH": 49983, "BSTAR": 0.0005384165, "MEAN_MOTION_DOT": 0.00033157, "MEAN_MOTION_DDOT": 0}, "tle": {"line1": "1 41886U 16078C   25345.21447829  .00033157  00000+0  53842-3 0  9998", "line2": "2 41886  34.9444  30.2604 0010962 196.6224 163.4141 15.51625052499835"}}, "geometry": {"type": "Point", "coordinates": [-92.08502079317009, -31.176270347499507]}}, {"type": "Feature", "properties": {"norad_id": 41887, "name": "CYGFM01", "group": "weather", "lat": 26.428831248823414, "lon": 102.4503471957686, "alt_km": 419.6334253461946, "timestamp": "2025-12-11T13:55:01.810677+00:00", "meta": {"OBJECT_NAME": "CYGFM01", "OBJECT_ID": "2016-078D", "EPOCH": "2025-12-11T05:57:34.031520", "MEAN_MOTION": 15.48126644, "ECCENTRICITY": 0.00094785, "INCLINATION": 34.943, "RA_OF_ASC_NODE": 59.2328, "ARG_OF_PERICENTER": 161.5007, "MEAN_ANOMALY": 198.606, "EPHEMERIS_TYPE": 0, "CLASSIFICATION_TYPE": "U", "NORAD_CAT_ID": 41887, "ELEMENT_SET_NO": 999, "REV_AT_EPOCH": 49947, "BSTAR": 0.00060343353, "MEAN_MOTION_DOT": 0.000328, "MEAN_MOTION_DDOT": 0}, "tle": {"line1": "1 41887U 16078D   25345.24831055  .00032800  00000+0  60343-3 0  9998", "line2": "2 41887  34.9430  59.2328 0009478 161.5007 198.6060 15.48126644499474"}}, "geometry": {"type": "Point", "coordinates": [102.4503471957686, 26.428831248823414]}}, {"type": "Feature", "properties": {"norad_id": 41888, "name": "CYGFM08", "group": "weather", "lat": 34.8089151995021, "lon": 135.43742704623978, "alt_km": 412.7506901593706, "timestamp": "2025-12-11T13:55:01.810689+00:00", "meta": {"OBJECT_NAME": "CYGFM08", "OBJECT_ID": "2016-078E", "EPOCH": "2025-12-11T05:46:45.043104", "MEAN_MOTION": 15.49326048, "ECCENTRICITY": 0.00113848, "INCLINATION": 34.9462, "RA_OF_ASC_NODE": 42.2916, "ARG_OF_PERICENTER": 185.3596, "MEAN_ANOMALY": 174.7005, "EPHEMERIS_TYPE": 0, "CLASSIFICATION_TYPE": "U", "NORAD_CAT_ID": 41888, "ELEMENT_SET_NO": 999, "REV_AT_EPOCH": 49970, "BSTAR": 0.00059885656, "MEAN_MOTION_DOT": 0.00033988, "MEAN_MOTION_DDOT": 0}, "tle": {"line1": "1 41888U 16078E   25345.24079911  .00033988  00000+0  59886-3 0  9992", "line2": "2 41888  34.9462  42.2916 0011384 185.3596 174.7005 15.49326048499702"}}, "geometry": {"type": "Point", "coordinates": [135.43742704623978, 34.8089151995021]}}, {"type": "Feature", "properties": {"norad_id": 41890, "name": "CYGFM07", "group": "weather", "lat": 34.287576617982786, "lon": 106.5675087541879, "alt_km": 414.5067691336217, "timestamp": "2025-12-11T13:55:01.810701+00:00", "meta": {"OBJECT_NAME": "CYGFM07", "OBJECT_ID": "2016-078G", "EPOCH": "2025-12-11T05:50:43.090656", "MEAN_MOTION": 15.49905313, "ECCENTRICITY": 0.00097643, "INCLINATION": 34.9483, "RA_OF_ASC_NODE": 31.2625, "ARG_OF_PERICENTER": 202.8538, "MEAN_ANOMALY": 157.175, "EPHEMERIS_TYPE": 0, "CLASSIFICATION_TYPE": "U", "NORAD_CAT_ID": 41890, "ELEMENT_SET_NO": 999, "REV_AT_EPOCH": 49972, "BSTAR": 0.00060586207, "MEAN_MOTION_DOT": 0.0003508, "MEAN_MOTION_DDOT": 0}, "tle": {"line1": "1 41890U 16078G   25345.24355429  .00035080  00000+0  60586-3 0  9990", "line2": "2 41890  34.9483  31.2625 0009764 202.8538 157.1750 15.49905313499725"}}, "geometry": {"type": "Point", "coordinates": [106.5675087541879, 34.287576617982786]}}, {"type": "Feature", "properties": {"norad_id": 41891, "name": "CYGFM03", "group": "weather", "lat": -34.7700565371606, "lon": -52.89115135459636, "alt_km": 418.44891423168247, "timestamp": "2025-12-11T13:55:01.810712+00:00", "meta": {"OBJECT_NAME": "CYGFM03", "OBJECT_ID": "2016-078H", "EPOCH": "2025-12-11T05:00:24.834528", "MEAN_MOTION": 15.49798407, "ECCENTRICITY": 0.00090919, "INCLINATION": 34.9435, "RA_OF_ASC_NODE": 33.4093, "ARG_OF_PERICENTER": 189.8697, "MEAN_ANOMALY": 170.1848, "EPHEMERIS_TYPE": 0, "CLASSIFICATION_TYPE": "U", "NORAD_CAT_ID": 41891, "ELEMENT_SET_NO": 999, "REV_AT_EPOCH": 49969, "BSTAR": 0.00051514977, "MEAN_MOTION_DOT": 0.0002968, "MEAN_MOTION_DDOT": 0}, "tle": {"line1": "1 41891U 16078H   25345.20862077  .00029680  00000+0  51515-3 0  9990", "line2": "2 41891  34.9435  33.4093 0009091 189.8697 170.1848 15.49798407499692"}}, "geometry": {"type": "Point", "coordinates": [-52.89115135459636, -34.7700565371606]}}]}